ACS3                    
1 59588U 24077B   24149.78761186  .00000048  00000+0  90889-4 0  9998
2 59588  97.4065 222.4730 0021156 144.8353 215.4199 13.67681803  4751
